NAYIF-1 (EO-88)         
1 42017U 17008BX  23032.15036601  .00045276  00000+0  90255-3 0  9999
2 42017  97.2392 101.0470 0003713 136.1367 224.0179 15.46740346332252
ZHUHAI-1 02 (CAS-4B)    
1 42759U 17034B   23032.48078471  .00007745  00000+0  42680-3 0  9996
2 42759  43.0161 148.4463 0011844 302.8128 147.0098 15.14302954311048
ZHUHAI-1 01 (CAS-4A)    
1 42761U 17034D   23032.57355001  .00007470  00000+0  41039-3 0  9998
2 42761  43.0155 146.5459 0011860 301.0714 176.1500 15.14449343311065
MAX VALIER SAT          
1 42778U 17036P   23032.10333417  .00013354  00000+0  42995-3 0  9994
2 42778  97.1783  70.6324 0008287 223.4835 136.5754 15.32295839311844
RADFXSAT (FOX-1B)       
1 43017U 17073E   23032.20909923  .00004085  00000+0  29835-3 0  9993
2 43017  97.6506 281.9794 0241771 157.0914 204.1307 14.83653004281001
FOX-1D (AO-92)          
1 43137U 18004AC  23032.42950438  .00021063  00000+0  60279-3 0  9994
2 43137  97.3454 111.0728 0005961 269.3208  90.7353 15.35956071281407
DIWATA-2B               
1 43678U 18084H   23032.55106890  .00002139  00000+0  21282-3 0  9995
2 43678  97.9980 174.0355 0008600 246.2703 113.7612 14.92739013232024
ES'HAIL 2               
1 43700U 18090A   23032.50242559  .00000147  00000+0  00000+0 0  9994
2 43700   0.0153  87.4934 0002419 258.4718 352.1012  1.00273200 15321
FOX-1CLIFF (AO-95)      
1 43770U 18099N   23032.38362620  .00004432  00000+0  38005-3 0  9999
2 43770  97.5925  97.6160 0012830 221.8881 138.1361 14.97953239227267
ITASAT 1                
1 43786U 18099AE  23032.16666697  .00003188  00000+0  27512-3 0  9991
2 43786  97.5954  98.4281 0013849 218.6742 141.3490 14.97892856227277
JY1SAT (JO-97)          
1 43803U 18099AX  23031.62027471  .00003516  00000+0  29640-3 0  9991
2 43803  97.5931  97.7612 0013102 219.2462 140.7812 14.98747265227220
UWE-4                   
1 43880U 18111E   23032.24816804  .00004378  00000+0  35636-3 0  9995
2 43880  97.6564 299.6066 0011912 275.7031  84.2834 14.99994389223976
NEXUS (FO-99)           
1 43937U 19003F   23032.54089888  .00023500  00000+0  60910-3 0  9997
2 43937  97.1075  62.6789 0018508  55.5366 304.7625 15.38845289225095
PSAT2 (NO-104)          
1 44354U 19036R   23032.17781491  .00529446  10887-3  79797-3 0  9996
2 44354  28.5155 348.5336 0065593 104.4555 256.3348 15.99112425200396
JAISAT-1                
1 44419U 19038F   23032.48687037  .00016936  00000+0  72667-3 0  9991
2 44419  97.6625  10.5440 0019471  63.3759 296.9469 15.22622647197838
DUCHIFAT-3              
1 44854U 19089C   23032.46823725  .00007668  00000+0  55834-3 0  9993
2 44854  36.9632 180.7656 0008326 296.1154 103.6498 15.03374017172389
CAS-6 (TIANQIN 1)       
1 44881U 19093C   23032.48260880  .00001169  00000+0  15334-3 0  9998
2 44881  97.8738 113.2189 0015266 155.7975 204.3943 14.82096972168696
RS-44 & BREEZE-KM R/B   
1 44909U 19096E   23032.49935900  .00000019  00000+0  26512-4 0  9999
2 44909  82.5185  78.1100 0218184 144.0008 217.6016 12.79717896144802
ORBITAL FACTORY 2 (OF-2)
1 45113U 19071C   23032.27456175  .00139575  00000+0  10920-2 0  9992
2 45113  51.6311 359.1909 0002173 349.0016  11.0934 15.70655649168950
HUSKYSAT-1 (HO-107)     
1 45119U 19071J   23032.48328191  .00090678  00000+0  91178-3 0  9992
2 45119  51.6327   2.0600 0003057 322.3800  37.6981 15.64683943168926
BY70-2                  
1 45857U 20042B   23032.32873969  .00012612  00000+0  15144-2 0  9992
2 45857  97.9373 112.3372 0010030  94.4046 265.8293 14.84097655139343
SALSAT                  
1 46495U 20068K   23032.53004299  .00004486  00000+0  31171-3 0  9993
2 46495  97.7553 339.3973 0015054 216.1540 143.8670 15.05963122128641
BY70-3                  
1 46839U 20079N   23032.49217282  .00085920  00000+0  99565-3 0  9993
2 46839  97.1701 108.4792 0004028 229.5660 258.3451 15.61527466125696
RADFXSAT-2 (AO-109)     
1 47311U 21002C   23032.05219977  .00018020  00000+0  59577-3 0  9997
2 47311  60.6816 218.8175 0036929 107.0590 253.4552 15.30846663113382
UVSQ-SAT                
1 47438U 21006AB  23032.14132448  .00010403  00000+0  49346-3 0  9998
2 47438  97.4075  91.5259 0010527 192.8320 167.2648 15.19412321111951
DIY-1 (ARDUIQUBE)       
1 47963U 21022AH  23032.28963914  .00045906  00000+0  17832-2 0  9994
2 47963  97.5154 297.2377 0016606  66.3075 293.9904 15.25793842101661
XW-3 (CAS-9)            
1 50466U 21131B   23032.56219374  .00000343  00000+0  12640-3 0  9991
2 50466  98.5625 114.5121 0004895 174.5308 185.5934 14.38651659 57855
TEVEL-3                 
1 50988U 22002E   23032.45227447  .00013772  00000+0  66264-3 0  9997
2 50988  97.4539 100.8184 0008692 358.2090 125.0000 15.18864882 58117
TEVEL-8                 
1 50989U 22002F   23032.46613021  .00013591  00000+0  65513-3 0  9991
2 50989  97.4564 100.8755 0008599 355.7628 130.4889 15.18805710 58115
TEVEL-5                 
1 50998U 22002Q   23032.46002167  .00014104  00000+0  66679-3 0  9999
2 50998  97.4531 101.0726 0009389 350.1503 131.3656 15.19465132 58134
TEVEL-6                 
1 50999U 22002R   23032.45875051  .00014054  00000+0  66425-3 0  9992
2 50999  97.4531 101.0681 0009757 349.6180 131.3443 15.19470861 58137
TEVEL-1                 
1 51013U 22002AF  23032.45835714  .00013736  00000+0  66157-3 0  9990
2 51013  97.4538 100.7842 0008280 356.3637 125.1974 15.18834353 58116
TEVEL-7                 
1 51062U 22002CG  23032.46807528  .00013674  00000+0  65907-3 0  9990
2 51062  97.4550 100.8552 0008368 355.7191 130.2459 15.18810269 58113
TEVEL-4                 
1 51063U 22002CH  23032.47058997  .00013561  00000+0  65410-3 0  9994
2 51063  97.4551 100.8488 0008609 354.4217 131.3471 15.18784447 58110
TEVEL-2                 
1 51069U 22002CP  23032.45482247  .00013804  00000+0  66428-3 0  9997
2 51069  97.4534 100.7979 0008245 357.2521 129.6537 15.18863363 58114
RS29S (SXC3-2110 CYCLO*)
1 53373U 22096D   23032.52247745  .00019615  00000+0  68217-3 0  9994
2 53373  97.4260 298.0858 0001602  69.1224  57.0617 15.29754415 26887
RS32S (SXC3-212 MONITO*)
1 53374U 22096E   23032.51620459  .00018582  00000+0  64932-3 0  9993
2 53374  97.4257 298.0819 0001217  81.0857  44.7618 15.29611104 26889
RS34S (SXC3-218 KUZBAS*)
1 53375U 22096F   23032.60324503  .00016114  00000+0  57545-3 0  9996
2 53375  97.4273 298.1024 0001164 100.3142 325.0276 15.28931199 26894
RS23S (SXC3-21 UTMN)    
1 53376U 22096G   23032.60061727  .00016708  00000+0  59338-3 0  9994
2 53376  97.4267 298.1176 0001271  94.6588 359.6386 15.29103709 26898
RS28S (SXC3-214 MIET-A*)
1 53377U 22096H   23032.60278218  .00015856  00000+0  56640-3 0  9996
2 53377  97.4267 298.1129 0001076 101.8126 342.4954 15.28925307 26895
RS26S (KAI-1)           
1 53378U 22096J   23032.56087130  .00013523  00000+0  49038-3 0  9995
2 53378  97.4272 298.0323 0001067  98.3733  22.5830 15.28466759 26880
RS19S (SXC3-219 ISOI)   
1 53381U 22096M   23032.61227644  .00015838  00000+0  55633-3 0  9990
2 53381  97.4266 298.2510 0004485 152.9769 293.1106 15.29466629 26902
RS21S (CUBESX-HSE-2)    
1 53383U 22096P   23032.47843856  .00016371  00000+0  57315-3 0  9997
2 53383  97.4268 298.1347 0004571 154.5421 308.8766 15.29567401 26885
RS30S (SXC3-217 SIREN)  
1 53384U 22096Q   23032.49169176  .00014129  00000+0  50115-3 0  9996
2 53384  97.4267 298.1159 0004267 153.4305 310.4660 15.29176298 26889
RS20S (GEOSCAN-EDELVEIS)
1 53385U 22096R   23032.47482718  .00020665  00000+0  69454-3 0  9993
2 53385  97.4257 298.2843 0004890 151.0749 312.6337 15.30844981 26921
RS33S (SXC3-215 VIZARD) 
1 53386U 22096S   23032.53598470  .00024317  00000+0  78628-3 0  9995
2 53386  97.4261 298.5151 0005330 154.7568 329.4801 15.32056552 26935
CAS-5A (FO-118)         
1 54684U 22167C   23032.57619725  .00010017  00000+0  62046-3 0  9996
2 54684  97.5404 171.6542 0015632  81.8285  50.4840 15.09873132  8180
CAS-10                  
1 54816U 21035C   23032.59176722  .00135042  00000+0  92988-3 0  9997
2 54816  41.4763 260.2878 0011995 246.2898 113.6689 15.73317037  7017
